{"type": "FeatureCollection", "features": [ {"type": "Feature", "properties": {"norad_id": 46979, "name": "IRIDIUM 33 DEB", "group": "iridium-33-debris", "lat": 40.571206289547376, "lon": -139.90675488213864, "alt_km": 579.4541280944459, "timestamp": "2025-12-24T03:53:30.032890+00:00", "meta": {"OBJECT_NAME": "IRIDIUM 33 DEB", "OBJECT_ID": "1997-051ACM", "EPOCH": "2025-12-22T09:22:02.047872", "MEAN_MOTION": 14.90160801, "ECCENTRICITY": 0.0028234, "INCLINATION": 86.3322, "RA_OF_ASC_NODE": 44.066, "ARG_OF_PERICENTER": 188.3469, "MEAN_ANOMALY": 171.7292, "EPHEMERIS_TYPE": 0, "CLASSIFICATION_TYPE": "U", "NORAD_CAT_ID": 46979, "ELEMENT_SET_NO": 999, "REV_AT_EPOCH": 35572, "BSTAR": 0.0042066082, "MEAN_MOTION_DOT": 0.00041233, "MEAN_MOTION_DDOT": 0}, "tle": {"line1": "1 46979U 97051ACM 25356.39030148  .00041233  00000+0  42066-2 0  9998", "line2": "2 46979  86.3322  44.0660 0028234 188.3469 171.7292 14.90160801355720"}}, "geometry": {"type": "Point", "coordinates": [-139.90675488213864, 40.571206289547376]}}]}